{"type": "FeatureCollection", "features": [ {"type": "Feature", "properties": {"norad_id": 66436, "name": "STARLINK-35501", "group": "last-30-days", "lat": 7.125285314640522, "lon": 80.50821918609195, "alt_km": 412.20727199061184, "timestamp": "2025-12-08T08:58:59.555883+00:00", "meta": {"OBJECT_NAME": "STARLINK-35501", "OBJECT_ID": "2025-259Q", "EPOCH": "2025-12-06T16:45:00.432288", "MEAN_MOTION": 15.50605966, "ECCENTRICITY": 0.00014143, "INCLINATION": 43.0008, "RA_OF_ASC_NODE": 82.6107, "ARG_OF_PERICENTER": 280.4896, "MEAN_ANOMALY": 79.5804, "EPHEMERIS_TYPE": 0, "CLASSIFICATION_TYPE": "U", "NORAD_CAT_ID": 66436, "ELEMENT_SET_NO": 999, "REV_AT_EPOCH": 523, "BSTAR": 0.0023641253, "MEAN_MOTION_DOT": 0.00141011, "MEAN_MOTION_DDOT": 0}, "tle": {"line1": "1 66436U 25259Q   25340.69792167  .00141011  00000+0  23641-2 0  9994", "line2": "2 66436  43.0008  82.6107 0001414 280.4896  79.5804 15.50605966  5239"}}, "geometry": {"type": "Point", "coordinates": [80.50821918609195, 7.125285314640522]}}, {"type": "Feature", "properties": {"norad_id": 66437, "name": "STARLINK-35474", "group": "last-30-days", "lat": 8.55666009742214, "lon": 82.08491087748688, "alt_km": 411.76204192197747, "timestamp": "2025-12-08T08:58:59.555893+00:00", "meta": {"OBJECT_NAME": "STARLINK-35474", "OBJECT_ID": "2025-259R", "EPOCH": "2025-12-06T16:44:30.685632", "MEAN_MOTION": 15.50622786, "ECCENTRICITY": 0.00020021, "INCLINATION": 43.0007, "RA_OF_ASC_NODE": 82.6072, "ARG_OF_PERICENTER": 283.6406, "MEAN_ANOMALY": 76.4231, "EPHEMERIS_TYPE": 0, "CLASSIFICATION_TYPE": "U", "NORAD_CAT_ID": 66437, "ELEMENT_SET_NO": 999, "REV_AT_EPOCH": 523, "BSTAR": 0.0025207389, "MEAN_MOTION_DOT": 0.00150655, "MEAN_MOTION_DDOT": 0}, "tle": {"line1": "1 66437U 25259R   25340.69757738  .00150655  00000+0  25207-2 0  9994", "line2": "2 66437  43.0007  82.6072 0002002 283.6406  76.4231 15.50622786  5235"}}, "geometry": {"type": "Point", "coordinates": [82.08491087748688, 8.55666009742214]}}, {"type": "Feature", "properties": {"norad_id": 66438, "name": "STARLINK-34681", "group": "last-30-days", "lat": 8.856776889635452, "lon": 82.42001932372064, "alt_km": 412.5404164408428, "timestamp": "2025-12-08T08:58:59.555903+00:00", "meta": {"OBJECT_NAME": "STARLINK-34681", "OBJECT_ID": "2025-259S", "EPOCH": "2025-12-07T14:22:38.050464", "MEAN_MOTION": 15.50614976, "ECCENTRICITY": 0.00012118, "INCLINATION": 42.9989, "RA_OF_ASC_NODE": 77.3301, "ARG_OF_PERICENTER": 308.3607, "MEAN_ANOMALY": 51.7144, "EPHEMERIS_TYPE": 0, "CLASSIFICATION_TYPE": "U", "NORAD_CAT_ID": 66438, "ELEMENT_SET_NO": 999, "REV_AT_EPOCH": 526, "BSTAR": 0.0020037428, "MEAN_MOTION_DOT": 0.00119166, "MEAN_MOTION_DDOT": 0}, "tle": {"line1": "1 66438U 25259S   25341.59905151  .00119166  00000+0  20037-2 0  9997", "line2": "2 66438  42.9989  77.3301 0001211 308.3607  51.7144 15.50614976  5262"}}, "geometry": {"type": "Point", "coordinates": [82.42001932372064, 8.856776889635452]}}, {"type": "Feature", "properties": {"norad_id": 66439, "name": "STARLINK-35327", "group": "last-30-days", "lat": -6.092877066763403, "lon": 66.27499042459253, "alt_km": 433.6721943070197, "timestamp": "2025-12-08T08:58:59.555915+00:00", "meta": {"OBJECT_NAME": "STARLINK-35327", "OBJECT_ID": "2025-259T", "EPOCH": "2025-12-07T22:00:03.000096", "MEAN_MOTION": 15.46348183, "ECCENTRICITY": 0.00011956, "INCLINATION": 43.0003, "RA_OF_ASC_NODE": 75.5085, "ARG_OF_PERICENTER": 272.6917, "MEAN_ANOMALY": 49.7119, "EPHEMERIS_TYPE": 0, "CLASSIFICATION_TYPE": "U", "NORAD_CAT_ID": 66439, "ELEMENT_SET_NO": 999, "REV_AT_EPOCH": 550, "BSTAR": -0.04610244, "MEAN_MOTION_DOT": -0.02071069, "MEAN_MOTION_DDOT": 0}, "tle": {"line1": "1 66439U 25259T   25341.91670139 -.02071069  00000+0 -46102-1 0  9992", "line2": "2 66439  43.0003  75.5085 0001195 272.6917  49.7119 15.46348183  5504"}}, "geometry": {"type": "Point", "coordinates": [66.27499042459253, -6.092877066763403]}}, {"type": "Feature", "properties": {"norad_id": 66440, "name": "STARLINK-35405", "group": "last-30-days", "lat": 10.110137996512954, "lon": 83.82196416123149, "alt_km": 413.59705886800293, "timestamp": "2025-12-08T08:58:59.555926+00:00", "meta": {"OBJECT_NAME": "STARLINK-35405", "OBJECT_ID": "2025-259U", "EPOCH": "2025-12-07T15:54:53.458272", "MEAN_MOTION": 15.50612094, "ECCENTRICITY": 0.00014929, "INCLINATION": 43, "RA_OF_ASC_NODE": 76.9519, "ARG_OF_PERICENTER": 230.537, "MEAN_ANOMALY": 129.5358, "EPHEMERIS_TYPE": 0, "CLASSIFICATION_TYPE": "U", "NORAD_CAT_ID": 66440, "ELEMENT_SET_NO": 999, "REV_AT_EPOCH": 538, "BSTAR": 0.0018607424, "MEAN_MOTION_DOT": 0.00110503, "MEAN_MOTION_DDOT": 0}, "tle": {"line1": "1 66440U 25259U   25341.66311873  .00110503  00000+0  18607-2 0  9996", "line2": "2 66440  43.0000  76.9519 0001492 230.5370 129.5358 15.50612094  5384"}}, "geometry": {"type": "Point", "coordinates": [83.82196416123149, 10.110137996512954]}}, {"type": "Feature", "properties": {"norad_id": 66441, "name": "STARLINK-35426", "group": "last-30-days", "lat": 11.313624660543496, "lon": 85.18140814627033, "alt_km": 412.6573324072442, "timestamp": "2025-12-08T08:58:59.555936+00:00", "meta": {"OBJECT_NAME": "STARLINK-35426", "OBJECT_ID": "2025-259V", "EPOCH": "2025-12-07T15:54:24.043392", "MEAN_MOTION": 15.50599213, "ECCENTRICITY": 0.00013675, "INCLINATION": 43.0021, "RA_OF_ASC_NODE": 76.9476, "ARG_OF_PERICENTER": 295.2545, "MEAN_ANOMALY": 64.8173, "EPHEMERIS_TYPE": 0, "CLASSIFICATION_TYPE": "U", "NORAD_CAT_ID": 66441, "ELEMENT_SET_NO": 999, "REV_AT_EPOCH": 538, "BSTAR": 0.0012005931, "MEAN_MOTION_DOT": 0.00070782, "MEAN_MOTION_DDOT": 0}, "tle": {"line1": "1 66441U 25259V   25341.66277828  .00070782  00000+0  12006-2 0  9999", "line2": "2 66441  43.0021  76.9476 0001367 295.2545  64.8173 15.50599213  5386"}}, "geometry": {"type": "Point", "coordinates": [85.18140814627033, 11.313624660543496]}}, {"type": "Feature", "properties": {"norad_id": 66442, "name": "STARLINK-34724", "group": "last-30-days", "lat": 13.90641201046539, "lon": 88.18447647291975, "alt_km": 413.23959727806596, "timestamp": "2025-12-08T08:58:59.555946+00:00", "meta": {"OBJECT_NAME": "STARLINK-34724", "OBJECT_ID": "2025-259W", "EPOCH": "2025-12-07T15:53:24.049824", "MEAN_MOTION": 15.50584698, "ECCENTRICITY": 0.00026596, "INCLINATION": 43.0009, "RA_OF_ASC_NODE": 76.9437, "ARG_OF_PERICENTER": 255.5287, "MEAN_ANOMALY": 104.5278, "EPHEMERIS_TYPE": 0, "CLASSIFICATION_TYPE": "U", "NORAD_CAT_ID": 66442, "ELEMENT_SET_NO": 999, "REV_AT_EPOCH": 538, "BSTAR": 0.0019143402, "MEAN_MOTION_DOT": 0.00113637, "MEAN_MOTION_DDOT": 0}, "tle": {"line1": "1 66442U 25259W   25341.66208391  .00113637  00000+0  19143-2 0  9995", "line2": "2 66442  43.0009  76.9437 0002659 255.5287 104.5278 15.50584698  5386"}}, "geometry": {"type": "Point", "coordinates": [88.18447647291975, 13.90641201046539]}}, {"type": "Feature", "properties": {"norad_id": 66443, "name": "STARLINK-35219", "group": "last-30-days", "lat": 15.645794540856388, "lon": 90.25663844813602, "alt_km": 410.9505124098114, "timestamp": "2025-12-08T08:58:59.555971+00:00", "meta": {"OBJECT_NAME": "STARLINK-35219", "OBJECT_ID": "2025-259X", "EPOCH": "2025-12-06T13:36:31.548384", "MEAN_MOTION": 15.50724046, "ECCENTRICITY": 0.00015671, "INCLINATION": 43.0012, "RA_OF_ASC_NODE": 83.3472, "ARG_OF_PERICENTER": 246.0575, "MEAN_ANOMALY": 114.0122, "EPHEMERIS_TYPE": 0, "CLASSIFICATION_TYPE": "U", "NORAD_CAT_ID": 66443, "ELEMENT_SET_NO": 999, "REV_AT_EPOCH": 510, "BSTAR": 0.0027615281, "MEAN_MOTION_DOT": 0.00166001, "MEAN_MOTION_DDOT": 0}, "tle": {"line1": "1 66443U 25259X   25340.56703181  .00166001  00000+0  27615-2 0  9997", "line2": "2 66443  43.0012  83.3472 0001567 246.0575 114.0122 15.50724046  5101"}}, "geometry": {"type": "Point", "coordinates": [90.25663844813602, 15.645794540856388]}}, {"type": "Feature", "properties": {"norad_id": 66444, "name": "STARLINK-35360", "group": "last-30-days", "lat": 20.500354683076914, "lon": 96.40467268253067, "alt_km": 409.12232261112604, "timestamp": "2025-12-08T08:58:59.555985+00:00", "meta": {"OBJECT_NAME": "STARLINK-35360", "OBJECT_ID": "2025-259Y", "EPOCH": "2025-12-07T14:18:40.570560", "MEAN_MOTION": 15.51368892, "ECCENTRICITY": 0.0004777, "INCLINATION": 43.0038, "RA_OF_ASC_NODE": 77.3109, "ARG_OF_PERICENTER": 278.632, "MEAN_ANOMALY": 81.4, "EPHEMERIS_TYPE": 0, "CLASSIFICATION_TYPE": "U", "NORAD_CAT_ID": 66444, "ELEMENT_SET_NO": 999, "REV_AT_EPOCH": 537, "BSTAR": 0.0047237825, "MEAN_MOTION_DOT": 0.00295769, "MEAN_MOTION_DDOT": 0}, "tle": {"line1": "1 66444U 25259Y   25341.59630290  .00295769  00000+0  47238-2 0  9999", "line2": "2 66444  43.0038  77.3109 0004777 278.6320  81.4000 15.51368892  5370"}}, "geometry": {"type": "Point", "coordinates": [96.40467268253067, 20.500354683076914]}}, {"type": "Feature", "properties": {"norad_id": 66445, "name": "STARLINK-34698", "group": "last-30-days", "lat": 0.604887568358072, "lon": 73.47390816725981, "alt_km": 462.2548612934261, "timestamp": "2025-12-08T08:58:59.555996+00:00", "meta": {"OBJECT_NAME": "STARLINK-34698", "OBJECT_ID": "2025-259Z", "EPOCH": "2025-12-07T15:52:44.533056", "MEAN_MOTION": 15.42622152, "ECCENTRICITY": 0.00336327, "INCLINATION": 43.003, "RA_OF_ASC_NODE": 76.9405, "ARG_OF_PERICENTER": 146.9856, "MEAN_ANOMALY": 213.311, "EPHEMERIS_TYPE": 0, "CLASSIFICATION_TYPE": "U", "NORAD_CAT_ID": 66445, "ELEMENT_SET_NO": 999, "REV_AT_EPOCH": 527, "BSTAR": -0.019836341, "MEAN_MOTION_DOT": -0.00829255, "MEAN_MOTION_DDOT": 0}, "tle": {"line1": "1 66445U 25259Z   25341.66162654 -.00829255  00000+0 -19836-1 0  9999", "line2": "2 66445  43.0030  76.9405 0033632 146.9856 213.3110 15.42622152  5279"}}, "geometry": {"type": "Point", "coordinates": [73.47390816725981, 0.604887568358072]}}]}